{"fetched_at":"2026-07-10T18:07:50.152Z","source":"https://celestrak.org/NORAD/elements/gp.php?GROUP=kuiper&FORMAT=JSON","constellation":"kuiper","records":[{"OBJECT_NAME":"KUIPER-00589","OBJECT_ID":"2026-151E","EPOCH":"2026-07-10T06:00:02.000160","CLASSIFICATION_TYPE":"U","MEAN_MOTION":15.37359554,"ECCENTRICITY":0.00055067,"INCLINATION":51.8753,"RA_OF_ASC_NODE":204.2959,"ARG_OF_PERICENTER":127.7721,"MEAN_ANOMALY":255.0416,"EPHEMERIS_TYPE":0,"NORAD_CAT_ID":69767,"ELEMENT_SET_NO":999,"REV_AT_EPOCH":189,"BSTAR":-0.00052029755,"MEAN_MOTION_DOT":-0.00019703,"MEAN_MOTION_DDOT":0},{"OBJECT_NAME":"KUIPER-00598","OBJECT_ID":"2026-151F","EPOCH":"2026-07-10T06:00:02.000160","CLASSIFICATION_TYPE":"U","MEAN_MOTION":15.35548282,"ECCENTRICITY":0.00101939,"INCLINATION":51.8634,"RA_OF_ASC_NODE":204.3912,"ARG_OF_PERICENTER":151.312,"MEAN_ANOMALY":184.3716,"EPHEMERIS_TYPE":0,"NORAD_CAT_ID":69768,"ELEMENT_SET_NO":999,"REV_AT_EPOCH":179,"BSTAR":-0.00024374369,"MEAN_MOTION_DOT":-0.00008945,"MEAN_MOTION_DDOT":0},{"OBJECT_NAME":"KUIPER-00604","OBJECT_ID":"2026-151G","EPOCH":"2026-07-10T06:00:02.000160","CLASSIFICATION_TYPE":"U","MEAN_MOTION":15.38179785,"ECCENTRICITY":0.00027651,"INCLINATION":51.88,"RA_OF_ASC_NODE":204.241,"ARG_OF_PERICENTER":92.7186,"MEAN_ANOMALY":313.7737,"EPHEMERIS_TYPE":0,"NORAD_CAT_ID":69769,"ELEMENT_SET_NO":999,"REV_AT_EPOCH":221,"BSTAR":-0.0005127881,"MEAN_MOTION_DOT":-0.00019932,"MEAN_MOTION_DDOT":0},{"OBJECT_NAME":"KUIPER-00609","OBJECT_ID":"2026-151H","EPOCH":"2026-07-10T06:00:02.000160","CLASSIFICATION_TYPE":"U","MEAN_MOTION":15.3857742,"ECCENTRICITY":0.00010004,"INCLINATION":51.8804,"RA_OF_ASC_NODE":204.2151,"ARG_OF_PERICENTER":39.543,"MEAN_ANOMALY":19.2394,"EPHEMERIS_TYPE":0,"NORAD_CAT_ID":69770,"ELEMENT_SET_NO":999,"REV_AT_EPOCH":130,"BSTAR":-0.00050468937,"MEAN_MOTION_DOT":-0.00019872,"MEAN_MOTION_DDOT":0},{"OBJECT_NAME":"KUIPER-00611","OBJECT_ID":"2026-151J","EPOCH":"2026-07-10T06:00:02.000160","CLASSIFICATION_TYPE":"U","MEAN_MOTION":15.38390595,"ECCENTRICITY":0.00016585,"INCLINATION":51.8805,"RA_OF_ASC_NODE":204.2239,"ARG_OF_PERICENTER":90.5429,"MEAN_ANOMALY":322.0577,"EPHEMERIS_TYPE":0,"NORAD_CAT_ID":69771,"ELEMENT_SET_NO":999,"REV_AT_EPOCH":130,"BSTAR":-0.00051118115,"MEAN_MOTION_DOT":-0.00020003,"MEAN_MOTION_DDOT":0},{"OBJECT_NAME":"KUIPER-00612","OBJECT_ID":"2026-151K","EPOCH":"2026-07-10T06:00:02.000160","CLASSIFICATION_TYPE":"U","MEAN_MOTION":15.37880975,"ECCENTRICITY":0.00037696,"INCLINATION":51.8792,"RA_OF_ASC_NODE":204.2606,"ARG_OF_PERICENTER":100.7099,"MEAN_ANOMALY":297.3072,"EPHEMERIS_TYPE":0,"NORAD_CAT_ID":69772,"ELEMENT_SET_NO":999,"REV_AT_EPOCH":130,"BSTAR":-0.00051044375,"MEAN_MOTION_DOT":-0.00019656,"MEAN_MOTION_DDOT":0},{"OBJECT_NAME":"KUIPER-00614","OBJECT_ID":"2026-151L","EPOCH":"2026-07-10T06:00:02.000160","CLASSIFICATION_TYPE":"U","MEAN_MOTION":15.38095154,"ECCENTRICITY":0.00027798,"INCLINATION":51.8803,"RA_OF_ASC_NODE":204.2444,"ARG_OF_PERICENTER":108.6053,"MEAN_ANOMALY":295.4289,"EPHEMERIS_TYPE":0,"NORAD_CAT_ID":69773,"ELEMENT_SET_NO":999,"REV_AT_EPOCH":179,"BSTAR":-0.00052288458,"MEAN_MOTION_DOT":-0.0002026,"MEAN_MOTION_DDOT":0},{"OBJECT_NAME":"KUIPER-00615","OBJECT_ID":"2026-151M","EPOCH":"2026-07-10T06:00:02.000160","CLASSIFICATION_TYPE":"U","MEAN_MOTION":15.37174944,"ECCENTRICITY":0.00062228,"INCLINATION":51.8772,"RA_OF_ASC_NODE":204.3051,"ARG_OF_PERICENTER":130.9362,"MEAN_ANOMALY":246.5538,"EPHEMERIS_TYPE":0,"NORAD_CAT_ID":69774,"ELEMENT_SET_NO":999,"REV_AT_EPOCH":130,"BSTAR":-0.00051834757,"MEAN_MOTION_DOT":-0.00019519,"MEAN_MOTION_DDOT":0},{"OBJECT_NAME":"KUIPER-00616","OBJECT_ID":"2026-151N","EPOCH":"2026-07-10T06:00:02.000160","CLASSIFICATION_TYPE":"U","MEAN_MOTION":15.38330555,"ECCENTRICITY":0.00031932,"INCLINATION":51.8786,"RA_OF_ASC_NODE":204.2431,"ARG_OF_PERICENTER":107.1112,"MEAN_ANOMALY":300.1499,"EPHEMERIS_TYPE":0,"NORAD_CAT_ID":69775,"ELEMENT_SET_NO":999,"REV_AT_EPOCH":130,"BSTAR":-0.00051126307,"MEAN_MOTION_DOT":-0.00019971,"MEAN_MOTION_DDOT":0},{"OBJECT_NAME":"KUIPER-00617","OBJECT_ID":"2026-151P","EPOCH":"2026-07-10T06:00:02.000160","CLASSIFICATION_TYPE":"U","MEAN_MOTION":15.37716617,"ECCENTRICITY":0.00041225,"INCLINATION":51.8796,"RA_OF_ASC_NODE":204.2657,"ARG_OF_PERICENTER":119.2775,"MEAN_ANOMALY":275.5868,"EPHEMERIS_TYPE":0,"NORAD_CAT_ID":69776,"ELEMENT_SET_NO":999,"REV_AT_EPOCH":130,"BSTAR":-0.0005137383,"MEAN_MOTION_DOT":-0.00019678,"MEAN_MOTION_DDOT":0},{"OBJECT_NAME":"KUIPER-00619","OBJECT_ID":"2026-151Q","EPOCH":"2026-07-10T06:00:02.000160","CLASSIFICATION_TYPE":"U","MEAN_MOTION":15.38478831,"ECCENTRICITY":0.00016752,"INCLINATION":51.8805,"RA_OF_ASC_NODE":204.219,"ARG_OF_PERICENTER":50.4921,"MEAN_ANOMALY":5.4734,"EPHEMERIS_TYPE":0,"NORAD_CAT_ID":69777,"ELEMENT_SET_NO":999,"REV_AT_EPOCH":130,"BSTAR":-0.00050576562,"MEAN_MOTION_DOT":-0.00019852,"MEAN_MOTION_DDOT":0},{"OBJECT_NAME":"KUIPER-00621","OBJECT_ID":"2026-151R","EPOCH":"2026-07-10T06:00:02.000160","CLASSIFICATION_TYPE":"U","MEAN_MOTION":15.3826935,"ECCENTRICITY":0.00020375,"INCLINATION":51.8796,"RA_OF_ASC_NODE":204.2374,"ARG_OF_PERICENTER":98.7641,"MEAN_ANOMALY":310.3513,"EPHEMERIS_TYPE":0,"NORAD_CAT_ID":69778,"ELEMENT_SET_NO":999,"REV_AT_EPOCH":203,"BSTAR":-0.00051740996,"MEAN_MOTION_DOT":-0.00020163,"MEAN_MOTION_DDOT":0},{"OBJECT_NAME":"KUIPER-00622","OBJECT_ID":"2026-151S","EPOCH":"2026-07-10T06:00:02.000160","CLASSIFICATION_TYPE":"U","MEAN_MOTION":15.36934323,"ECCENTRICITY":0.00069395,"INCLINATION":51.8731,"RA_OF_ASC_NODE":204.3184,"ARG_OF_PERICENTER":132.0873,"MEAN_ANOMALY":240.1016,"EPHEMERIS_TYPE":0,"NORAD_CAT_ID":69779,"ELEMENT_SET_NO":999,"REV_AT_EPOCH":189,"BSTAR":-0.00052502525,"MEAN_MOTION_DOT":-0.00019618,"MEAN_MOTION_DDOT":0},{"OBJECT_NAME":"KUIPER-00623","OBJECT_ID":"2026-151T","EPOCH":"2026-07-10T06:00:02.000160","CLASSIFICATION_TYPE":"U","MEAN_MOTION":15.37376839,"ECCENTRICITY":0.00051073,"INCLINATION":51.8778,"RA_OF_ASC_NODE":204.2859,"ARG_OF_PERICENTER":119.1008,"MEAN_ANOMALY":267.5007,"EPHEMERIS_TYPE":0,"NORAD_CAT_ID":69780,"ELEMENT_SET_NO":999,"REV_AT_EPOCH":201,"BSTAR":-0.00053578829,"MEAN_MOTION_DOT":-0.00020286,"MEAN_MOTION_DDOT":0},{"OBJECT_NAME":"KUIPER-00626","OBJECT_ID":"2026-151U","EPOCH":"2026-07-10T06:00:02.000160","CLASSIFICATION_TYPE":"U","MEAN_MOTION":15.35801581,"ECCENTRICITY":0.00102724,"INCLINATION":51.8714,"RA_OF_ASC_NODE":204.3741,"ARG_OF_PERICENTER":146.4255,"MEAN_ANOMALY":198.3871,"EPHEMERIS_TYPE":0,"NORAD_CAT_ID":69781,"ELEMENT_SET_NO":999,"REV_AT_EPOCH":224,"BSTAR":-0.00051702759,"MEAN_MOTION_DOT":-0.00018664,"MEAN_MOTION_DDOT":0},{"OBJECT_NAME":"KUIPER-00627","OBJECT_ID":"2026-151V","EPOCH":"2026-07-10T06:00:02.000160","CLASSIFICATION_TYPE":"U","MEAN_MOTION":15.3548707,"ECCENTRICITY":0.00115067,"INCLINATION":51.8686,"RA_OF_ASC_NODE":204.3891,"ARG_OF_PERICENTER":151.6688,"MEAN_ANOMALY":185.7745,"EPHEMERIS_TYPE":0,"NORAD_CAT_ID":69782,"ELEMENT_SET_NO":999,"REV_AT_EPOCH":130,"BSTAR":-0.00046269493,"MEAN_MOTION_DOT":-0.00016591,"MEAN_MOTION_DDOT":0}]}
