KUIPER-00589            
1 69767U 26151E   26191.25002315 -.00019703  00000+0 -52030-3 0  9991
2 69767  51.8753 204.2959 0005506 127.7721 255.0416 15.37359554  1898
KUIPER-00598            
1 69768U 26151F   26191.25002315 -.00008945  00000+0 -24374-3 0  9998
2 69768  51.8634 204.3912 0010193 151.3120 184.3716 15.35548282  1793
KUIPER-00604            
1 69769U 26151G   26191.25002315 -.00019932  00000+0 -51279-3 0  9991
2 69769  51.8800 204.2410 0002765  92.7186 313.7737 15.38179785  2217
KUIPER-00609            
1 69770U 26151H   26191.25002315 -.00019872  00000+0 -50469-3 0  9996
2 69770  51.8804 204.2151 0001000  39.5430  19.2394 15.38577420  1301
KUIPER-00611            
1 69771U 26151J   26191.25002315 -.00020003  00000+0 -51118-3 0  9997
2 69771  51.8805 204.2239 0001658  90.5429 322.0577 15.38390595  1308
KUIPER-00612            
1 69772U 26151K   26191.25002315 -.00019656  00000+0 -51044-3 0  9998
2 69772  51.8792 204.2606 0003769 100.7099 297.3072 15.37880975  1303
KUIPER-00614            
1 69773U 26151L   26191.25002315 -.00020260  00000+0 -52288-3 0  9993
2 69773  51.8803 204.2444 0002779 108.6053 295.4289 15.38095154  1794
KUIPER-00615            
1 69774U 26151M   26191.25002315 -.00019519  00000+0 -51835-3 0  9996
2 69774  51.8772 204.3051 0006222 130.9362 246.5538 15.37174944  1308
KUIPER-00616            
1 69775U 26151N   26191.25002315 -.00019971  00000+0 -51126-3 0  9992
2 69775  51.8786 204.2431 0003193 107.1112 300.1499 15.38330555  1304
KUIPER-00617            
1 69776U 26151P   26191.25002315 -.00019678  00000+0 -51374-3 0  9992
2 69776  51.8796 204.2657 0004122 119.2775 275.5868 15.37716617  1309
KUIPER-00619            
1 69777U 26151Q   26191.25002315 -.00019852  00000+0 -50577-3 0  9991
2 69777  51.8805 204.2190 0001675  50.4921   5.4734 15.38478831  1308
KUIPER-00621            
1 69778U 26151R   26191.25002315 -.00020163  00000+0 -51741-3 0  9993
2 69778  51.8796 204.2374 0002037  98.7641 310.3513 15.38269350  2037
KUIPER-00622            
1 69779U 26151S   26191.25002315 -.00019618  00000+0 -52503-3 0  9994
2 69779  51.8731 204.3184 0006939 132.0873 240.1016 15.36934323  1899
KUIPER-00623            
1 69780U 26151T   26191.25002315 -.00020286  00000+0 -53579-3 0  9993
2 69780  51.8778 204.2859 0005107 119.1008 267.5007 15.37376839  2013
KUIPER-00626            
1 69781U 26151U   26191.25002315 -.00018664  00000+0 -51703-3 0  9998
2 69781  51.8714 204.3741 0010272 146.4255 198.3871 15.35801581  2241
KUIPER-00627            
1 69782U 26151V   26191.25002315 -.00016591  00000+0 -46269-3 0  9997
2 69782  51.8686 204.3891 0011506 151.6688 185.7745 15.35487070  1304
